ONEWEB-0606             
1 54670U 22166AE  26189.12771238 -.00000018  00000+0 -75980-4 0  9999
2 54670  87.9237 239.8324 0002126 101.3288 258.8085 13.21824961174336
ONEWEB-0607             
1 54671U 22166AF  26189.09408786  .00000070  00000+0  13899-3 0  9997
2 54671  87.9243 239.8114 0001919  95.8700 264.2652 13.21825542174300
ONEWEB-0608             
1 54672U 22166AG  26189.10078214  .00000038  00000+0  61441-4 0  9990
2 54672  87.9248 239.8070 0001860  81.8869 278.2476 13.21823447174315
ONEWEB-0610             
1 54673U 22166AH  26189.08063030  .00000048  00000+0  85102-4 0  9999
2 54673  87.9234 239.8238 0001554  84.6538 275.4773 13.21825278174213
ONEWEB-0611             
1 54674U 22166AJ  26189.07387860  .00000016  00000+0  66661-5 0  9994
2 54674  87.9236 239.8206 0002222  98.9492 261.1893 13.21826131174204
ONEWEB-0612             
1 54675U 22166AK  26188.70887244  .00000861  00000+0  20535-2 0  9990
2 54675  87.9245 239.8908 0001940  93.9788 266.1568 13.21824054174142
ONEWEB-0615             
1 54676U 22166AL  26189.06715083  .00000001  00000+0 -30108-4 0  9998
2 54676  87.9239 239.8326 0002208 103.5282 256.6097 13.21827902174208
ONEWEB-0655             
1 54677U 22166AM  26189.11929359 -.00000026  00000+0 -93817-4 0  9992
2 54677  87.9241 239.8225 0001867  97.4389 262.6957 13.21828475174207
ONEWEB-0659             
1 54678U 22166AN  26189.13611882  .00000013  00000+0 -52216-6 0  9999
2 54678  87.9238 239.8191 0002120  95.3046 264.8329 13.21824011174294
ONEWEB-0685             
1 54679U 22166AP  26188.68170297 -.00000024  00000+0 -90344-4 0  9994
2 54679  87.9234 239.9010 0001803  87.5869 272.5471 13.21848259174121
ONEWEB-0712             
1 54680U 22166AQ  26189.03517404  .00000001  00000+0 -32033-4 0  9996
2 54680  87.9084 224.6340 0001716 103.9944 256.1377 13.16595584174805
ONEWEB-0714             
1 54681U 22166AR  26189.14118610  .00000003  00000+0 -25059-4 0  9997
2 54681  87.9237 239.8078 0001921 103.8669 256.2679 13.21825761174303
ONEWEB-0532             
1 55140U 23004A   26188.91494993  .00000038  00000+0  63659-4 0  9990
2 55140  87.9134   1.7397 0002085  82.9181 277.2187 13.17647727170311
ONEWEB-0533             
1 55141U 23004B   26189.19391959  .00000380  00000+0  10201-2 0  9993
2 55141  87.8956 346.4928 0001721  91.4664 268.6662 13.12442139170811
ONEWEB-0541             
1 55142U 23004C   26188.93501617 -.00000521  00000+0 -15061-2 0  9997
2 55142  87.8890  16.9277 0002021  89.6108 270.5251 13.11416267168669
ONEWEB-0543             
1 55143U 23004D   26188.95403266  .00000055  00000+0  10696-3 0  9991
2 55143  87.9180 331.3378 0001785 103.4762 256.6569 13.18686413172432
ONEWEB-0544             
1 55144U 23004E   26188.87141131  .00000043  00000+0  77498-4 0  9994
2 55144  87.9182 331.3539 0001994 102.2524 257.8831 13.18687083172427
ONEWEB-0560             
1 55145U 23004F   26188.94053297  .00000083  00000+0  17821-3 0  9995
2 55145  87.9181 331.3293 0001922 102.7746 257.3601 13.18684346172447
ONEWEB-0565             
1 55146U 23004G   26188.93380594  .00000027  00000+0  35677-4 0  9996
2 55146  87.9172 331.3565 0002281  97.0024 263.1368 13.18686638172434
ONEWEB-0567             
1 55147U 23004H   26188.92705718 -.00000030  00000+0 -10978-3 0  9997
2 55147  87.9181 331.3440 0002278 101.5822 258.5566 13.18687901172432
ONEWEB-0569             
1 55148U 23004J   26188.80460705  .00000315  00000+0  82768-3 0  9999
2 55148  87.8986 316.1172 0002580 117.9631 242.1760 13.13470389172882
ONEWEB-0570             
1 55149U 23004K   26188.91862407 -.00000011  00000+0 -59899-4 0  9992
2 55149  87.9180 331.3433 0002122  88.1655 271.9720 13.18686408172428
ONEWEB-0571             
1 55150U 23004L   26188.91188755  .00000013  00000+0 -76646-6 0  9993
2 55150  87.9180 331.3441 0003053 108.1414 252.0050 13.18685395172430
ONEWEB-0572             
1 55151U 23004M   26188.94617552  .00000065  00000+0  13396-3 0  9995
2 55151  87.9139   1.7349 0002015  92.2608 267.8754 13.17651068170213
ONEWEB-0573             
1 55152U 23004N   26188.90512566  .00000049  00000+0  92335-4 0  9994
2 55152  87.9182 331.3472 0002745 101.8801 258.2638 13.18687181172429
ONEWEB-0588             
1 55153U 23004P   26188.89839578  .00000050  00000+0  92863-4 0  9996
2 55153  87.9180 331.3483 0002276  87.2525 272.8868 13.18686283172428
ONEWEB-0598             
1 55154U 23004Q   26188.98928307  .00000168  00000+0  43725-3 0  9998
2 55154  87.8880  16.9260 0002379 103.4479 256.6914 13.11414684168623
ONEWEB-0599             
1 55155U 23004R   26188.90735157  .00000071  00000+0  14979-3 0  9992
2 55155  87.9138   1.7412 0001804  97.9517 262.1819 13.17649950170210
ONEWEB-0614             
1 55156U 23004S   26188.90789983  .00000351  00000+0  95418-3 0  9997
2 55156  87.8875  16.9504 0001868  83.4538 276.6803 13.11414452168559
ONEWEB-0616             
1 55157U 23004T   26188.94953903  .00000005  00000+0 -20027-4 0  9999
2 55157  87.9142   1.7366 0001450 121.4829 238.6444 13.17650570170437
ONEWEB-0617             
1 55158U 23004U   26188.97233126  .00000577  00000+0  15912-2 0  9999
2 55158  87.8884  16.9301 0002078  79.4439 280.6923 13.11417467168585
