OBJECT_NAME,OBJECT_ID,EPOCH,MEAN_MOTION,ECCENTRICITY,INCLINATION,RA_OF_ASC_NODE,ARG_OF_PERICENTER,MEAN_ANOMALY,EPHEMERIS_TYPE,CLASSIFICATION_TYPE,NORAD_CAT_ID,ELEMENT_SET_NO,REV_AT_EPOCH,BSTAR,MEAN_MOTION_DOT,MEAN_MOTION_DDOT
ONEWEB-0606,2022-166AE,2026-07-08T03:03:54.349632,13.21824961,.0002126,87.9237,239.8324,101.3288,258.8085,0,U,54670,999,17433,-.7598E-4,-.18E-6,0
ONEWEB-0607,2022-166AF,2026-07-08T02:15:29.191104,13.21825542,.0001919,87.9243,239.8114,95.8700,264.2652,0,U,54671,999,17430,.13899E-3,.7E-6,0
ONEWEB-0608,2022-166AG,2026-07-08T02:25:07.576896,13.21823447,.000186,87.9248,239.8070,81.8869,278.2476,0,U,54672,999,17431,.61441E-4,.38E-6,0
ONEWEB-0610,2022-166AH,2026-07-08T01:56:06.457920,13.21825278,.0001554,87.9234,239.8238,84.6538,275.4773,0,U,54673,999,17421,.85102E-4,.48E-6,0
ONEWEB-0611,2022-166AJ,2026-07-08T01:46:23.111040,13.21826131,.0002222,87.9236,239.8206,98.9492,261.1893,0,U,54674,999,17420,.66661E-5,.16E-6,0
ONEWEB-0612,2022-166AK,2026-07-07T17:00:46.578816,13.21824054,.000194,87.9245,239.8908,93.9788,266.1568,0,U,54675,999,17414,.20535E-2,.861E-5,0
ONEWEB-0615,2022-166AL,2026-07-08T01:36:41.831712,13.21827902,.0002208,87.9239,239.8326,103.5282,256.6097,0,U,54676,999,17420,-.30108E-4,.1E-7,0
ONEWEB-0655,2022-166AM,2026-07-08T02:51:46.966176,13.21828475,.0001867,87.9241,239.8225,97.4389,262.6957,0,U,54677,999,17420,-.93817E-4,-.26E-6,0
ONEWEB-0659,2022-166AN,2026-07-08T03:16:00.666048,13.21824011,.000212,87.9238,239.8191,95.3046,264.8329,0,U,54678,999,17429,-.52216E-6,.13E-6,0
ONEWEB-0685,2022-166AP,2026-07-07T16:21:39.136608,13.21848259,.0001803,87.9234,239.9010,87.5869,272.5471,0,U,54679,999,17412,-.90344E-4,-.24E-6,0
ONEWEB-0712,2022-166AQ,2026-07-08T00:50:39.037056,13.16595584,.0001716,87.9084,224.6340,103.9944,256.1377,0,U,54680,999,17480,-.32033E-4,.1E-7,0
ONEWEB-0714,2022-166AR,2026-07-08T03:23:18.479040,13.21825761,.0001921,87.9237,239.8078,103.8669,256.2679,0,U,54681,999,17430,-.25059E-4,.3E-7,0
ONEWEB-0532,2023-004A,2026-07-07T21:57:31.673952,13.17647727,.0002085,87.9134,1.7397,82.9181,277.2187,0,U,55140,999,17031,.63659E-4,.38E-6,0
ONEWEB-0533,2023-004B,2026-07-08T04:39:14.652576,13.12442139,.0001721,87.8956,346.4928,91.4664,268.6662,0,U,55141,999,17081,.10201E-2,.38E-5,0
ONEWEB-0541,2023-004C,2026-07-07T22:26:25.397088,13.11416267,.0002021,87.8890,16.9277,89.6108,270.5251,0,U,55142,999,16866,-.15061E-2,-.521E-5,0
ONEWEB-0543,2023-004D,2026-07-07T22:53:48.421824,13.18686413,.0001785,87.9180,331.3378,103.4762,256.6569,0,U,55143,999,17243,.10696E-3,.55E-6,0
ONEWEB-0544,2023-004E,2026-07-07T20:54:49.937184,13.18687083,.0001994,87.9182,331.3539,102.2524,257.8831,0,U,55144,999,17242,.77498E-4,.43E-6,0
ONEWEB-0560,2023-004F,2026-07-07T22:34:22.048608,13.18684346,.0001922,87.9181,331.3293,102.7746,257.3601,0,U,55145,999,17244,.17821E-3,.83E-6,0
ONEWEB-0565,2023-004G,2026-07-07T22:24:40.833216,13.18686638,.0002281,87.9172,331.3565,97.0024,263.1368,0,U,55146,999,17243,.35677E-4,.27E-6,0
ONEWEB-0567,2023-004H,2026-07-07T22:14:57.740352,13.18687901,.0002278,87.9181,331.3440,101.5822,258.5566,0,U,55147,999,17243,-.10978E-3,-.3E-6,0
ONEWEB-0569,2023-004J,2026-07-07T19:18:38.049120,13.13470389,.000258,87.8986,316.1172,117.9631,242.1760,0,U,55148,999,17288,.82768E-3,.315E-5,0
ONEWEB-0570,2023-004K,2026-07-07T22:02:49.119648,13.18686408,.0002122,87.9180,331.3433,88.1655,271.9720,0,U,55149,999,17242,-.59899E-4,-.11E-6,0
ONEWEB-0571,2023-004L,2026-07-07T21:53:07.084320,13.18685395,.0003053,87.9180,331.3441,108.1414,252.0050,0,U,55150,999,17243,-.76646E-6,.13E-6,0
ONEWEB-0572,2023-004M,2026-07-07T22:42:29.564928,13.17651068,.0002015,87.9139,1.7349,92.2608,267.8754,0,U,55151,999,17021,.13396E-3,.65E-6,0
ONEWEB-0573,2023-004N,2026-07-07T21:43:22.857024,13.18687181,.0002745,87.9182,331.3472,101.8801,258.2638,0,U,55152,999,17242,.92335E-4,.49E-6,0
ONEWEB-0588,2023-004P,2026-07-07T21:33:41.395392,13.18686283,.0002276,87.9180,331.3483,87.2525,272.8868,0,U,55153,999,17242,.92863E-4,.5E-6,0
ONEWEB-0598,2023-004Q,2026-07-07T23:44:34.057248,13.11414684,.0002379,87.8880,16.9260,103.4479,256.6914,0,U,55154,999,16862,.43725E-3,.168E-5,0
ONEWEB-0599,2023-004R,2026-07-07T21:46:35.175648,13.17649950,.0001804,87.9138,1.7412,97.9517,262.1819,0,U,55155,999,17021,.14979E-3,.71E-6,0
ONEWEB-0614,2023-004S,2026-07-07T21:47:22.545312,13.11414452,.0001868,87.8875,16.9504,83.4538,276.6803,0,U,55156,999,16855,.95418E-3,.351E-5,0
ONEWEB-0616,2023-004T,2026-07-07T22:47:20.172192,13.17650570,.000145,87.9142,1.7366,121.4829,238.6444,0,U,55157,999,17043,-.20027E-4,.5E-7,0
ONEWEB-0617,2023-004U,2026-07-07T23:20:09.420864,13.11417467,.0002078,87.8884,16.9301,79.4439,280.6923,0,U,55158,999,16858,.15912E-2,.577E-5,0
